[{"OBJECT_NAME":"STARLINK-5004","OBJECT_ID":"2022-119AP","EPOCH":"2026-03-09T22:19:47.472384","MEAN_MOTION":15.08837186,"ECCENTRICITY":0.00013472,"INCLINATION":53.2183,"RA_OF_ASC_NODE":312.8687,"ARG_OF_PERICENTER":85.7179,"MEAN_ANOMALY":274.3967,"EPHEMERIS_TYPE":0,"CLASSIFICATION_TYPE":"U","NORAD_CAT_ID":53923,"ELEMENT_SET_NO":999,"REV_AT_EPOCH":19186,"BSTAR":1.972859e-6,"MEAN_MOTION_DOT":-2.57e-6,"MEAN_MOTION_DDOT":0},{"OBJECT_NAME":"CZ-2D R\/B","OBJECT_ID":"2010-027B","EPOCH":"2026-03-09T19:01:31.304352","MEAN_MOTION":15.02332282,"ECCENTRICITY":0.00475082,"INCLINATION":97.9913,"RA_OF_ASC_NODE":95.0303,"ARG_OF_PERICENTER":252.3591,"MEAN_ANOMALY":107.2442,"EPHEMERIS_TYPE":0,"CLASSIFICATION_TYPE":"U","NORAD_CAT_ID":36597,"ELEMENT_SET_NO":999,"REV_AT_EPOCH":85595,"BSTAR":0.00022535675,"MEAN_MOTION_DOT":2.983e-5,"MEAN_MOTION_DDOT":0}]
